CSS (TIANHE)            
1 48274U 21035A   24139.58370850  .00057612  00000+0  57737-3 0  9993
2 48274  41.4680 263.8977 0002947   4.4277 355.6588 15.64634224174467
